CUTE-1 (CO-55)          
1 27844U 03031E   26131.92940550  .00000190  00000+0  10139-3 0  9995
2 27844  98.6747 140.9437 0008369 293.9469  66.0833 14.24312642186510
CUBESAT XI-IV (CO-57)   
1 27848U 03031J   26131.97000580  .00000168  00000+0  92943-4 0  9993
2 27848  98.6780 140.7254 0008525 314.7788  45.2696 14.23600890186224
CUBESAT XI-V            
1 28895U 05043F   26132.18593480  .00000845  00000+0  14114-3 0  9996
2 28895  98.2945 287.0624 0013191 323.9140  36.1175 14.72534334 96450
CUTE-1.7+APD II (CO-65) 
1 32785U 08021C   26132.24845828  .00002725  00000+0  17599-3 0  9990
2 32785  97.8259 112.9345 0009999 142.2539 217.9392 15.09102397979773
CANX-2                  
1 32790U 08021H   26132.19737182  .00002094  00000+0  15056-3 0  9998
2 32790  97.8627 111.2888 0011092 155.8166 204.3583 15.05356948979394
SEEDS II (CO-66)        
1 32791U 08021J   26131.95242802  .00011536  00000+0  38169-3 0  9993
2 32791  97.7527 128.1593 0005040  86.4722 273.7094 15.31496475981744
SWISSCUBE               
1 35932U 09051B   26132.24860677  .00000616  00000+0  13145-3 0  9990
2 35932  98.4058  39.5092 0006254 336.3034  23.7877 14.62409745883909
BEESAT-1                
1 35933U 09051C   26132.17103002  .00000506  00000+0  11158-3 0  9995
2 35933  98.3987  39.1406 0005104 354.7660   5.3486 14.61659504883920
ITUPSAT1                
1 35935U 09051E   26132.19897173  .00000466  00000+0  10629-3 0  9995
2 35935  98.4072  38.3987 0007512   1.1749 358.9467 14.60384459883489
TISAT 1                 
1 36799U 10035E   26132.10390084  .00012873  00000+0  44152-3 0  9991
2 36799  98.0692  75.4988 0003611  54.6432 305.5143 15.30319327862186
AEROCUBE 4.5A           
1 38767U 12048K   26132.32284405  .00113623  00000+0  66036-3 0  9997
2 38767  64.6292 156.1009 0019264 217.0014 142.9812 15.77666832366970
STRAND-1                
1 39090U 13009E   26132.27015244  .00000180  00000+0  75038-4 0  9998
2 39090  98.3916 313.3903 0008239 346.6672  13.4296 14.37141449691905
BRITE-AUSTRIA           
1 39091U 13009F   26132.26761377  .00000109  00000+0  51639-4 0  9995
2 39091  98.3988 312.5942 0009985 354.5452   5.5624 14.36527334691897
NEE-01 PEGASO           
1 39151U 13018B   26131.88726023  .00001820  00000+0  17871-3 0  9998
2 39151  98.1175 274.8535 0011183 285.1037  74.8945 14.93480823705287
POPACS 2                
1 39269U 13055E   26131.59604559  .00009204  00000+0  15800-3 0  9990
2 39269  80.9931 186.0535 0419365 311.5041  45.0875 14.90383682657766
POPACS 3                
1 39270U 13055F   26132.10086556  .00011526  00000+0  27559-3 0  9995
2 39270  81.0002 268.2855 0554936 179.7327 180.4287 14.55228363633302
ZACUBE-1 (TSHEPISOSAT)  
1 39417U 13066B   26132.14343432  .00002957  00000+0  23294-3 0  9993
2 39417  97.8118  94.2849 0041984  14.4700 345.7715 15.00904333675321
WNISAT-1                
1 39423U 13066H   26131.90783370  .00000287  00000+0  61363-4 0  9996
2 39423  97.7158 283.6487 0162771 346.6812  13.0116 14.58016999661447
TRITON-1                
1 39427U 13066M   26132.29977885  .00001810  00000+0  22189-3 0  9994
2 39427  97.8260  42.9240 0090228 352.3958   7.5880 14.81544980668772
GOMX-1                  
1 39430U 13066Q   26132.29846166  .00001145  00000+0  17876-3 0  9993
2 39430  97.6514 335.0241 0128386 192.1438 167.6667 14.69315493664647
CUBEBUG-2 (LO-74)       
1 39440U 13066AA  26132.08779615  .00001920  00000+0  18206-3 0  9994
2 39440  97.8889  80.9276 0058806 145.6360 214.8685 14.93488953671603
NEE-02 KRYSAOR          
1 39441U 13066AB  26132.26471428  .00000979  00000+0  11293-3 0  9998
2 39441  97.8881  71.7440 0066001 186.2135 173.8270 14.86481886670865
FUNCUBE-1 (AO-73)       
1 39444U 13066AE  26132.25457176  .00005049  00000+0  31892-3 0  9994
2 39444  97.8259 102.9681 0035496 328.8307  31.0815 15.09015544674246
UWE-3                   
1 39446U 13066AG  26131.85056797  .00001943  00000+0  17105-3 0  9995
2 39446  97.8679  87.6953 0050950  80.9232 279.7749 14.96716038672145
BRITE-CA1 (TORONTO)     
1 40020U 14033L   26132.29853822  .00000459  00000+0  76566-4 0  9991
2 40020  97.9687 261.8998 0079335  32.7324 327.8764 14.72626838636936
DUCHIFAT-1              
1 40021U 14033M   26132.12536242  .00050870  00000+0  67127-3 0  9992
2 40021  98.0509 186.4226 0005800 189.1310 170.9839 15.58226206650123
NANOSATC-BR1            
1 40024U 14033Q   26132.05847399  .00009914  00000+0  34113-3 0  9997
2 40024  98.0758 161.2762 0001989 331.9616  28.1515 15.30297181648456
QB50P1                  
1 40025U 14033R   26132.29001669  .00005409  00000+0  27197-3 0  9995
2 40025  98.0983 140.9348 0008445   1.2823 358.8429 15.17692585647584
QB50P2                  
1 40032U 14033Y   26132.23387167  .00003811  00000+0  20989-3 0  9994
2 40032  98.0756 126.8919 0005855 306.0216  54.0472 15.14689804647222
PERSEUS-M2              
1 40037U 14033AD  26132.26596103  .00001096  00000+0  10465-3 0  9995
2 40037  97.9936  82.0832 0013139  62.0117 298.2431 14.95394509645414
